[{"OBJECT_NAME":"STARLINK-5306","OBJECT_ID":"2023-010C","EPOCH":"2026-03-09T08:36:13.834944","MEAN_MOTION":14.98330801,"ECCENTRICITY":0.00030221,"INCLINATION":70.0003,"RA_OF_ASC_NODE":45.3995,"ARG_OF_PERICENTER":270.3748,"MEAN_ANOMALY":89.7065,"EPHEMERIS_TYPE":0,"CLASSIFICATION_TYPE":"U","NORAD_CAT_ID":55271,"ELEMENT_SET_NO":999,"REV_AT_EPOCH":17273,"BSTAR":7.3714316e-5,"MEAN_MOTION_DOT":7.87e-6,"MEAN_MOTION_DDOT":0},{"OBJECT_NAME":"HAWK-9A","OBJECT_ID":"2024-066E","EPOCH":"2026-03-09T10:20:39.002208","MEAN_MOTION":14.98777479,"ECCENTRICITY":0.00036271,"INCLINATION":45.6088,"RA_OF_ASC_NODE":72.7153,"ARG_OF_PERICENTER":244.6286,"MEAN_ANOMALY":115.4219,"EPHEMERIS_TYPE":0,"CLASSIFICATION_TYPE":"U","NORAD_CAT_ID":59446,"ELEMENT_SET_NO":999,"REV_AT_EPOCH":10486,"BSTAR":0.00023458946,"MEAN_MOTION_DOT":2.638e-5,"MEAN_MOTION_DDOT":0}]
